ORBCOMM FM103 [+]       
1 40091U 14040F   24094.93404390  .00000870  00000+0  23130-3 0  9990
2 40091  47.0055 289.4802 0001354  60.5228 299.5792 14.56434343517098
ORBCOMM FM114 [+]       
1 41179U 15081A   24095.37965682  .00001043  00000+0  26975-3 0  9992
2 41179  47.0020 196.6765 0001307 169.1952 190.8961 14.56458563440460
ORBCOMM FM119 [-]       
1 41180U 15081B   24095.41763461  .00000630  00000+0  17800-3 0  9998
2 41180  46.9998 105.6836 0001774 232.9429 127.1294 14.56421903441729
ORBCOMM FM105 [-]       
1 41181U 15081C   24095.29661018  .00000357  00000+0  14830-3 0  9996
2 41181  47.0017  69.8662 0001409 182.4377 177.6496 14.44301360437289
ORBCOMM FM110 [+]       
1 41182U 15081D   24095.56260269  .00001074  00000+0  27672-3 0  9995
2 41182  47.0010 195.2254 0002421 295.6492  64.4142 14.56448059440368
ORBCOMM FM118 [+]       
1 41183U 15081E   24095.53981278  .00001072  00000+0  27649-3 0  9995
2 41183  47.0034 195.6305 0002574 293.8690  66.1925 14.56447685440468
ORBCOMM FM112 [+]       
1 41184U 15081F   24095.32692406  .00000659  00000+0  18438-3 0  9991
2 41184  46.9983 105.3398 0001268 230.0229 130.0544 14.56433735441651
ORBCOMM FM113 [+]       
1 41185U 15081G   24095.30400586  .00000719  00000+0  19786-3 0  9990
2 41185  47.0000 105.7073 0001431 249.3500 110.7232 14.56430293441638
